[
    {
        "Altitude(m)": 567684.3822649579,
        "Argument of Periapsis(deg)": 0.013245982221427002,
        "Eccentricity": 0.0,
        "Inclination(deg)": 53.0,
        "Latitude(deg)": -42.81833038022763,
        "Longitude(deg)": 54.44136174259306,
        "Mean Anomaly(deg)": -57.99861426484486,
        "RAAN(deg)": 199.98028673705602,
        "Satellite Name": "Starlink Shell 1 897",
        "Satellite Number": 897,
        "Semi-Major Axis(m)": 6931778.249405717,
        "Time(s)": 380
    },
    {
        "Altitude(m)": 567534.8225172572,
        "Argument of Periapsis(deg)": 0.013594560700938237,
        "Eccentricity": 0.0,
        "Inclination(deg)": 53.0,
        "Latitude(deg)": -42.45626657562486,
        "Longitude(deg)": 55.09184452240065,
        "Mean Anomaly(deg)": -57.37178306128811,
        "RAAN(deg)": 199.97976796697856,
        "Satellite Name": "Starlink Shell 1 897",
        "Satellite Number": 897,
        "Semi-Major Axis(m)": 6931778.249405717,
        "Time(s)": 390
    },
    {
        "Altitude(m)": 567383.4868602284,
        "Argument of Periapsis(deg)": 0.013943139180449475,
        "Eccentricity": 0.0,
        "Inclination(deg)": 53.0,
        "Latitude(deg)": -42.090045569777985,
        "Longitude(deg)": 55.734379324580004,
        "Mean Anomaly(deg)": -56.744951857731444,
        "RAAN(deg)": 199.97924919690107,
        "Satellite Name": "Starlink Shell 1 897",
        "Satellite Number": 897,
        "Semi-Major Axis(m)": 6931778.249405717,
        "Time(s)": 400
    },
    {
        "Altitude(m)": 567230.4345498965,
        "Argument of Periapsis(deg)": 0.014291717659960712,
        "Eccentricity": 0.0,
        "Inclination(deg)": 53.0,
        "Latitude(deg)": -41.719765545955646,
        "Longitude(deg)": 56.36907109281919,
        "Mean Anomaly(deg)": -56.118120654174696,
        "RAAN(deg)": 199.9787304268236,
        "Satellite Name": "Starlink Shell 1 897",
        "Satellite Number": 897,
        "Semi-Major Axis(m)": 6931778.249405717,
        "Time(s)": 410
    },
    {
        "Altitude(m)": 567075.7254607505,
        "Argument of Periapsis(deg)": 0.014640296139471948,
        "Eccentricity": 0.0,
        "Inclination(deg)": 53.0,
        "Latitude(deg)": -41.345522862603,
        "Longitude(deg)": 56.996026939759986,
        "Mean Anomaly(deg)": -55.49128945061793,
        "RAAN(deg)": 199.97821165674617,
        "Satellite Name": "Starlink Shell 1 897",
        "Satellite Number": 897,
        "Semi-Major Axis(m)": 6931778.249405717,
        "Time(s)": 420
    },
    {
        "Altitude(m)": 566919.4200592828,
        "Argument of Periapsis(deg)": 0.014988874618983185,
        "Eccentricity": 0.0,
        "Inclination(deg)": 53.0,
        "Latitude(deg)": -40.96741204696683,
        "Longitude(deg)": 57.61535633031525,
        "Mean Anomaly(deg)": -54.86445824706126,
        "RAAN(deg)": 199.97769288666865,
        "Satellite Name": "Starlink Shell 1 897",
        "Satellite Number": 897,
        "Semi-Major Axis(m)": 6931778.249405717,
        "Time(s)": 430
    },
    {
        "Altitude(m)": 566761.5793772576,
        "Argument of Periapsis(deg)": 0.015337453098494424,
        "Eccentricity": 0.0,
        "Inclination(deg)": 53.0,
        "Latitude(deg)": -40.58552579312131,
        "Longitude(deg)": 58.227171282767536,
        "Mean Anomaly(deg)": -54.23762704350451,
        "RAAN(deg)": 199.97717411659121,
        "Satellite Name": "Starlink Shell 1 897",
        "Satellite Number": 897,
        "Semi-Major Axis(m)": 6931778.249405717,
        "Time(s)": 440
    },
    {
        "Altitude(m)": 566602.2649846909,
        "Argument of Periapsis(deg)": 0.01568603157800566,
        "Eccentricity": 0.0,
        "Inclination(deg)": 53.0,
        "Latitude(deg)": -40.19995496404627,
        "Longitude(deg)": 58.831585074444206,
        "Mean Anomaly(deg)": -53.61079583994786,
        "RAAN(deg)": 199.97665534651375,
        "Satellite Name": "Starlink Shell 1 897",
        "Satellite Number": 897,
        "Semi-Major Axis(m)": 6931778.249405717,
        "Time(s)": 450
    },
    {
        "Altitude(m)": 566441.5389626211,
        "Argument of Periapsis(deg)": 0.0160346100575169,
        "Eccentricity": 0.0,
        "Inclination(deg)": 53.0,
        "Latitude(deg)": -39.81078859741854,
        "Longitude(deg)": 59.42871247731742,
        "Mean Anomaly(deg)": -52.98396463639109,
        "RAAN(deg)": 199.97613657643626,
        "Satellite Name": "Starlink Shell 1 897",
        "Satellite Number": 897,
        "Semi-Major Axis(m)": 6931778.249405717,
        "Time(s)": 460
    },
    {
        "Altitude(m)": 566279.4638755629,
        "Argument of Periapsis(deg)": 0.016383188537028134,
        "Eccentricity": 0.0,
        "Inclination(deg)": 53.0,
        "Latitude(deg)": -39.4181139147998,
        "Longitude(deg)": 60.01867001020474,
        "Mean Anomaly(deg)": -52.35713343283432,
        "RAAN(deg)": 199.9756178063588,
        "Satellite Name": "Starlink Shell 1 897",
        "Satellite Number": 897,
        "Semi-Major Axis(m)": 6931778.249405717,
        "Time(s)": 470
    },
    {
        "Altitude(m)": 566116.1027438089,
        "Argument of Periapsis(deg)": 0.01673176701653937,
        "Eccentricity": 0.0,
        "Inclination(deg)": 53.0,
        "Latitude(deg)": -39.022016333916504,
        "Longitude(deg)": 60.60157469420927,
        "Mean Anomaly(deg)": -51.730302229277676,
        "RAAN(deg)": 199.9750990362813,
        "Satellite Name": "Starlink Shell 1 897",
        "Satellite Number": 897,
        "Semi-Major Axis(m)": 6931778.249405717,
        "Time(s)": 480
    },
    {
        "Altitude(m)": 565951.5190154546,
        "Argument of Periapsis(deg)": 0.017080345496050607,
        "Eccentricity": 0.0,
        "Inclination(deg)": 53.0,
        "Latitude(deg)": -38.6225794837405,
        "Longitude(deg)": 61.17754433661267,
        "Mean Anomaly(deg)": -51.103471025721,
        "RAAN(deg)": 199.97458026620382,
        "Satellite Name": "Starlink Shell 1 897",
        "Satellite Number": 897,
        "Semi-Major Axis(m)": 6931778.249405717,
        "Time(s)": 490
    },
    {
        "Altitude(m)": 565785.7765382323,
        "Argument of Periapsis(deg)": 0.017428923975561842,
        "Eccentricity": 0.0,
        "Inclination(deg)": 53.0,
        "Latitude(deg)": -38.21988522209887,
        "Longitude(deg)": 61.7466978297945,
        "Mean Anomaly(deg)": -50.476639822164266,
        "RAAN(deg)": 199.97406149612635,
        "Satellite Name": "Starlink Shell 1 897",
        "Satellite Number": 897,
        "Semi-Major Axis(m)": 6931778.249405717,
        "Time(s)": 500
    },
    {
        "Altitude(m)": 565618.9395311634,
        "Argument of Periapsis(deg)": 0.01777750245507308,
        "Eccentricity": 0.0,
        "Inclination(deg)": 53.0,
        "Latitude(deg)": -37.81401365555663,
        "Longitude(deg)": 62.30915395173271,
        "Mean Anomaly(deg)": -49.84980861860762,
        "RAAN(deg)": 199.9735427260489,
        "Satellite Name": "Starlink Shell 1 897",
        "Satellite Number": 897,
        "Semi-Major Axis(m)": 6931778.249405717,
        "Time(s)": 510
    },
    {
        "Altitude(m)": 565451.0725560181,
        "Argument of Periapsis(deg)": 0.018126080934584315,
        "Eccentricity": 0.0,
        "Inclination(deg)": 53.0,
        "Latitude(deg)": -37.40504316132591,
        "Longitude(deg)": 62.8650316932391,
        "Mean Anomaly(deg)": -49.22297741505082,
        "RAAN(deg)": 199.9730239559714,
        "Satellite Name": "Starlink Shell 1 897",
        "Satellite Number": 897,
        "Semi-Major Axis(m)": 6931778.249405717,
        "Time(s)": 520
    },
    {
        "Altitude(m)": 565282.240488595,
        "Argument of Periapsis(deg)": 0.018474659414095554,
        "Eccentricity": 0.0,
        "Inclination(deg)": 53.0,
        "Latitude(deg)": -36.99305041097782,
        "Longitude(deg)": 63.414450598461045,
        "Mean Anomaly(deg)": -48.59614621149417,
        "RAAN(deg)": 199.97250518589394,
        "Satellite Name": "Starlink Shell 1 897",
        "Satellite Number": 897,
        "Semi-Major Axis(m)": 6931778.249405717,
        "Time(s)": 530
    },
    {
        "Altitude(m)": 565112.5084898589,
        "Argument of Periapsis(deg)": 0.018823237893606792,
        "Eccentricity": 0.0,
        "Inclination(deg)": 53.0,
        "Latitude(deg)": -36.578110395743145,
        "Longitude(deg)": 63.95752960517931,
        "Mean Anomaly(deg)": -47.96931500793742,
        "RAAN(deg)": 199.97198641581647,
        "Satellite Name": "Starlink Shell 1 897",
        "Satellite Number": 897,
        "Semi-Major Axis(m)": 6931778.249405717,
        "Time(s)": 540
    },
    {
        "Altitude(m)": 564941.9419769438,
        "Argument of Periapsis(deg)": 0.019171816373118027,
        "Eccentricity": 0.0,
        "Inclination(deg)": 53.0,
        "Latitude(deg)": -36.16029645320289,
        "Longitude(deg)": 64.49438741004403,
        "Mean Anomaly(deg)": -47.342483804380656,
        "RAAN(deg)": 199.97146764573898,
        "Satellite Name": "Starlink Shell 1 897",
        "Satellite Number": 897,
        "Semi-Major Axis(m)": 6931778.249405717,
        "Time(s)": 550
    },
    {
        "Altitude(m)": 564770.6065939894,
        "Argument of Periapsis(deg)": 0.019520394852629266,
        "Eccentricity": 0.0,
        "Inclination(deg)": 53.0,
        "Latitude(deg)": -35.7396802951834,
        "Longitude(deg)": 65.02514284528499,
        "Mean Anomaly(deg)": -46.71565260082401,
        "RAAN(deg)": 199.97094887566155,
        "Satellite Name": "Starlink Shell 1 897",
        "Satellite Number": 897,
        "Semi-Major Axis(m)": 6931778.249405717,
        "Time(s)": 560
    }
]